[{"OBJECT_NAME":"STARLINK-32024","OBJECT_ID":"2024-117X","EPOCH":"2026-03-09T21:56:48.176736","MEAN_MOTION":15.30182398,"ECCENTRICITY":0.00012794,"INCLINATION":53.1617,"RA_OF_ASC_NODE":35.8781,"ARG_OF_PERICENTER":77.7135,"MEAN_ANOMALY":282.4009,"EPHEMERIS_TYPE":0,"CLASSIFICATION_TYPE":"U","NORAD_CAT_ID":60112,"ELEMENT_SET_NO":999,"REV_AT_EPOCH":9692,"BSTAR":4.3806127e-5,"MEAN_MOTION_DOT":9.38e-6,"MEAN_MOTION_DDOT":0},{"OBJECT_NAME":"GEOSCAN 4 (RS92S4)","OBJECT_ID":"2025-155S","EPOCH":"2026-03-09T21:50:07.724832","MEAN_MOTION":15.30369837,"ECCENTRICITY":0.00070968,"INCLINATION":97.4465,"RA_OF_ASC_NODE":37.7626,"ARG_OF_PERICENTER":154.7045,"MEAN_ANOMALY":205.4544,"EPHEMERIS_TYPE":0,"CLASSIFICATION_TYPE":"U","NORAD_CAT_ID":64892,"ELEMENT_SET_NO":999,"REV_AT_EPOCH":6562,"BSTAR":0.00068609503,"MEAN_MOTION_DOT":0.00020121,"MEAN_MOTION_DDOT":0}]
